{
    "links": {
        "self": "http://www.neowsapp.com/rest/v1/neo/3552682?api_key=iIulBulltgU6a56xZRHN4H3l9WmuAYTsLGpBGhQ2"
    },
    "id": "3552682",
    "neo_reference_id": "3552682",
    "name": "(2010 XC)",
    "designation": "2010 XC",
    "nasa_jpl_url": "http://ssd.jpl.nasa.gov/sbdb.cgi?sstr=3552682",
    "absolute_magnitude_h": 28.813,
    "estimated_diameter": {
        "kilometers": {
            "estimated_diameter_min": 0.0045915041,
            "estimated_diameter_max": 0.0102669153
        },
        "meters": {
            "estimated_diameter_min": 4.5915041016,
            "estimated_diameter_max": 10.2669152901
        },
        "miles": {
            "estimated_diameter_min": 0.0028530275,
            "estimated_diameter_max": 0.0063795634
        },
        "feet": {
            "estimated_diameter_min": 15.0639903166,
            "estimated_diameter_max": 33.6841063603
        }
    },
    "is_potentially_hazardous_asteroid": false,
    "close_approach_data": [
        {
            "close_approach_date": "2010-12-05",
            "close_approach_date_full": "2010-Dec-05 20:39",
            "epoch_date_close_approach": 1291581540000,
            "relative_velocity": {
                "kilometers_per_second": "5.3782439619",
                "kilometers_per_hour": "19361.6782626698",
                "miles_per_hour": "12030.5939182683"
            },
            "miss_distance": {
                "astronomical": "0.0114812023",
                "lunar": "4.4661876947",
                "kilometers": "1717563.409119101",
                "miles": "1067244.4136455538"
            },
            "orbiting_body": "Earth"
        }
    ],
    "orbital_data": {
        "orbit_id": "7",
        "orbit_determination_date": "2017-04-06 08:55:30",
        "first_observation_date": "2010-12-01",
        "last_observation_date": "2010-12-01",
        "data_arc_in_days": null,
        "observations_used": 8,
        "orbit_uncertainty": "9",
        "minimum_orbit_intersection": ".00375117",
        "jupiter_tisserand_invariant": "4.621",
        "epoch_osculation": "2455531.5",
        "eccentricity": ".3250244182938254",
        "semi_major_axis": "1.434197353412557",
        "inclination": "1.21813504898019",
        "ascending_node_longitude": "248.1744604928686",
        "orbital_period": "627.3527441108218",
        "perihelion_distance": ".9680481929010967",
        "perihelion_argument": "212.1599118909868",
        "aphelion_distance": "1.900346513924017",
        "perihelion_time": "2455558.930370402801",
        "mean_anomaly": "344.259360562765",
        "mean_motion": ".57383984270324",
        "equinox": "J2000",
        "orbit_class": {
            "orbit_class_type": "APO",
            "orbit_class_description": "Near-Earth asteroid orbits which cross the Earth’s orbit similar to that of 1862 Apollo",
            "orbit_class_range": "a (semi-major axis) > 1.0 AU; q (perihelion) < 1.017 AU"
        }
    },
    "is_sentry_object": false
}